QZS-1R                  
1 49336U 21096A   24081.91855010 -.00000239  00000+0  00000+0 0  9990
2 49336  35.7640  91.8481 0750095 269.7534 282.8842  1.00289901  8816
